OBJECT_NAME,OBJECT_ID,EPOCH,MEAN_MOTION,ECCENTRICITY,INCLINATION,RA_OF_ASC_NODE,ARG_OF_PERICENTER,MEAN_ANOMALY,EPHEMERIS_TYPE,CLASSIFICATION_TYPE,NORAD_CAT_ID,ELEMENT_SET_NO,REV_AT_EPOCH,BSTAR,MEAN_MOTION_DOT,MEAN_MOTION_DDOT
BEIDOU-3 IGSO-3,2019-073A,2026-05-16T19:27:04.075776,1.00246251,.0042953,54.8566,281.2355,189.4588,170.3676,0,U,44709,999,2414,0,-.217E-5,0
TIBA-1,2019-080A,2026-06-09T20:21:00.294048,1.00274871,.00021086,0.0509,350.2373,112.2245,136.5407,0,U,44800,999,2398,0,.173E-5,0
INMARSAT GX5,2019-080B,2026-06-09T20:14:00.964608,1.00270740,.00023676,0.0394,14.5554,61.9444,136.2521,0,U,44801,999,671,0,.92E-6,0
JCSAT-18 (KACIFIC 1),2019-091A,2026-06-09T19:11:04.507872,1.00270275,.00003615,0.0157,240.7513,338.1316,117.0710,0,U,44868,999,2393,0,-.183E-5,0
ELEKTRO-L 3,2019-095A,2026-06-09T22:33:39.232224,1.00272335,.0001368,0.2371,81.3075,353.9512,237.4175,0,U,44903,999,2363,0,-.79E-6,0
SHIJIAN-20 (SJ-20),2019-097A,2026-06-09T06:42:21.555360,1.00275165,.0013815,4.8978,75.1590,53.4150,274.4638,0,U,44910,999,2361,0,.151E-5,0
TJS-5,2020-002A,2026-06-09T10:25:36.238080,1.00273083,.0007543,0.0306,290.7235,116.5233,114.4723,0,U,44978,999,2363,0,-.325E-5,0
GSAT-30,2020-005A,2026-06-09T03:27:54.806976,1.00269386,.00034085,0.0531,105.7770,339.2323,307.4766,0,U,45026,999,2342,0,-.147E-5,0
EUTELSAT KONNECT,2020-005B,2026-06-09T03:06:19.377216,1.00273234,.00014502,0.0706,99.2729,119.5425,92.5263,0,U,45027,999,2425,0,.67E-6,0
JCSAT-17,2020-013A,2026-06-09T19:07:04.891296,1.00271322,.0002715,5.3923,356.7890,79.2543,244.9086,0,U,45245,999,2315,0,-.306E-5,0
GEO-KOMPSAT-2B,2020-013B,2026-06-09T19:04:50.105568,1.00269964,.00003571,0.0421,156.7250,146.7417,9.1642,0,U,45246,999,2320,0,-.326E-5,0
BEIDOU-3 G2,2020-017A,2026-06-09T22:16:23.212416,1.00273495,.00024559,2.8484,47.2327,30.1210,235.0996,0,U,45344,999,2318,0,-.125E-5,0
AEHF-6 (USA 298),2020-022B,2026-06-09T19:07:34.842720,1.00274734,.00431568,2.5655,301.0385,17.3060,4.4583,0,U,45465,999,2294,0,-.281E-5,0
BEIDOU-3 G3,2020-040A,2026-06-09T22:25:07.374432,1.00271128,.00027813,2.4283,67.4328,338.7251,299.0058,0,U,45807,999,2199,0,-.337E-5,0
APSTAR-6D,2020-045A,2026-06-09T16:33:34.992576,1.00268962,.00021036,0.0502,104.3507,344.4035,191.7177,0,U,45863,999,2178,0,-.301E-5,0
KOREASAT 116,2020-048A,2026-06-09T19:01:20.441280,1.00272273,.00009041,0.0153,334.2948,99.3223,226.1050,0,U,45920,999,2156,0,-.345E-5,0
EXPRESS 103,2020-053A,2026-06-09T22:21:07.756992,1.00272756,.00005412,0.0175,275.4198,131.3441,283.3326,0,U,45985,999,2157,0,-.263E-5,0
EXPRESS 80,2020-053B,2026-06-09T01:30:21.106656,1.00272780,.00023767,0.0190,306.6890,209.8618,203.4706,0,U,45986,999,2155,0,-.119E-5,0
BSAT-4B,2020-056A,2026-06-09T12:08:55.597920,1.00273071,.00037947,0.0407,168.6637,305.2086,76.0750,0,U,46112,999,2131,0,-.333E-5,0
MEV-2,2020-056B,2026-06-09T16:45:19.450656,1.00269630,.00005513,0.0135,331.3110,201.9292,335.1547,0,U,46113,999,8044,0,.6E-7,0
GALAXY 30 (G-30),2020-056C,2026-06-09T17:52:36.705792,1.00273387,.0002141,0.0181,315.9250,118.6738,326.6745,0,U,46114,999,2121,0,.54E-6,0
GAOFEN-13 01,2020-071A,2026-06-09T20:44:38.945760,1.00274873,.00412356,0.5013,84.9270,123.3530,119.3023,0,U,46610,999,2084,0,-.345E-5,0
TIANTONG-1 2,2020-082A,2026-06-08T15:41:14.221248,1.00267814,.00013838,0.8019,326.2020,110.9677,180.0960,0,U,46916,999,2056,0,-.34E-5,0
LUCAS (JDRS-1),2020-089A,2026-06-09T20:51:19.257696,1.00272847,.00022619,0.0245,279.9764,149.4626,232.4275,0,U,47202,999,2034,0,-.219E-5,0
SXM-7,2020-096A,2026-06-08T21:32:02.222880,1.00272150,.00039884,0.0403,145.8843,339.0032,10.2626,0,U,47240,999,736,0,-.189E-5,0
CMS-01,2020-099A,2026-06-09T20:34:32.415168,1.00272148,.00036366,0.0784,98.4901,180.1894,11.1746,0,U,47256,999,2012,0,-.147E-5,0
TURKSAT 5A,2021-001A,2026-06-09T21:09:53.394336,1.00271308,.00001192,0.0220,62.3738,101.8784,82.4081,0,U,47306,999,1989,0,.171E-5,0
TIANTONG-1 3,2021-003A,2026-06-09T22:16:45.676416,1.00272162,.00034267,1.7623,338.8276,107.0053,228.2068,0,U,47321,999,1988,0,-.14E-5,0
TJS-6,2021-010A,2026-06-09T17:36:30.748608,1.00277123,.00037051,0.2706,264.4803,213.1521,223.1419,0,U,47613,999,1973,0,.61E-6,0
SBIRS GEO-5 (USA 315),2021-042A,2026-06-09T20:12:21.575232,1.00271084,.00015044,5.1136,329.0612,120.3494,205.7063,0,U,48618,999,1869,0,-.256E-5,0
FENGYUN 4B,2021-047A,2026-06-09T22:23:22.541856,1.00263407,.00050995,0.1341,76.5533,286.6853,335.4366,0,U,48808,999,1849,0,-.311E-5,0
SXM-8,2021-049A,2026-06-08T21:32:02.222880,1.00271519,.00049691,0.0181,10.7842,21.8826,102.4864,0,U,48838,999,1850,0,-.189E-5,0
