BEIDOU-3 IGSO-3         
1 44709U 19073A   26136.81046384 -.00000217  00000+0  00000+0 0  9995
2 44709  54.8566 281.2355 0042953 189.4588 170.3676  1.00246251 24144
TIBA-1                  
1 44800U 19080A   26160.84792007  .00000173  00000+0  00000+0 0  9995
2 44800   0.0509 350.2373 0002108 112.2245 136.5407  1.00274871 23981
INMARSAT GX5            
1 44801U 19080B   26160.84306672  .00000092  00000+0  00000+0 0  9995
2 44801   0.0394  14.5554 0002367  61.9444 136.2521  1.00270740  6710
JCSAT-18 (KACIFIC 1)    
1 44868U 19091A   26160.79935773 -.00000183  00000+0  00000+0 0  9996
2 44868   0.0157 240.7513 0000361 338.1316 117.0710  1.00270275 23930
ELEKTRO-L 3             
1 44903U 19095A   26160.94003741 -.00000079  00000+0  00000+0 0  9992
2 44903   0.2371  81.3075 0001368 353.9512 237.4175  1.00272335 23631
SHIJIAN-20 (SJ-20)      
1 44910U 19097A   26160.27941615  .00000151  00000+0  00000+0 0  9999
2 44910   4.8978  75.1590 0013815  53.4150 274.4638  1.00275165 23612
TJS-5                   
1 44978U 20002A   26160.43444720 -.00000325  00000+0  00000+0 0  9998
2 44978   0.0306 290.7235 0007543 116.5233 114.4723  1.00273083 23631
GSAT-30                 
1 45026U 20005A   26160.14438434 -.00000147  00000+0  00000+0 0  9991
2 45026   0.0531 105.7770 0003408 339.2323 307.4766  1.00269386 23424
EUTELSAT KONNECT        
1 45027U 20005B   26160.12939094  .00000067  00000+0  00000+0 0  9998
2 45027   0.0706  99.2729 0001450 119.5425  92.5263  1.00273234 24250
JCSAT-17                
1 45245U 20013A   26160.79658439 -.00000306  00000+0  00000+0 0  9990
2 45245   5.3923 356.7890 0002715  79.2543 244.9086  1.00271322 23159
GEO-KOMPSAT-2B          
1 45246U 20013B   26160.79502437 -.00000326  00000+0  00000+0 0  9999
2 45246   0.0421 156.7250 0000357 146.7417   9.1642  1.00269964 23207
BEIDOU-3 G2             
1 45344U 20017A   26160.92804644 -.00000125  00000+0  00000+0 0  9999
2 45344   2.8484  47.2327 0002455  30.1210 235.0996  1.00273495 23185
AEHF-6 (USA 298)        
1 45465U 20022B   26160.79693105 -.00000281  00000+0  00000+0 0  9995
2 45465   2.5655 301.0385 0043156  17.3060   4.4583  1.00274734 22944
BEIDOU-3 G3             
1 45807U 20040A   26160.93411313 -.00000337  00000+0  00000+0 0  9992
2 45807   2.4283  67.4328 0002781 338.7251 299.0058  1.00271128 21998
APSTAR-6D               
1 45863U 20045A   26160.68998834 -.00000301  00000+0  00000+0 0  9990
2 45863   0.0502 104.3507 0002103 344.4035 191.7177  1.00268962 21789
KOREASAT 116            
1 45920U 20048A   26160.79259770 -.00000345  00000+0  00000+0 0  9996
2 45920   0.0153 334.2948 0000904  99.3223 226.1050  1.00272273 21569
EXPRESS 103             
1 45985U 20053A   26160.93133978 -.00000263  00000+0  00000+0 0  9999
2 45985   0.0175 275.4198 0000541 131.3441 283.3326  1.00272756 21571
EXPRESS 80              
1 45986U 20053B   26160.06274429 -.00000119  00000+0  00000+0 0  9991
2 45986   0.0190 306.6890 0002376 209.8618 203.4706  1.00272780 21550
BSAT-4B                 
1 46112U 20056A   26160.50619905 -.00000333  00000+0  00000+0 0  9995
2 46112   0.0407 168.6637 0003794 305.2086  76.0750  1.00273071 21314
MEV-2                   
1 46113U 20056B   26160.69814179  .00000006  00000+0  00000+0 0  9992
2 46113   0.0135 331.3110 0000551 201.9292 335.1547  1.00269630 80445
GALAXY 30 (G-30)        
1 46114U 20056C   26160.74486928  .00000054  00000+0  00000+0 0  9999
2 46114   0.0181 315.9250 0002141 118.6738 326.6745  1.00273387 21215
GAOFEN-13 01            
1 46610U 20071A   26160.86433965 -.00000345  00000+0  00000+0 0  9997
2 46610   0.5013  84.9270 0041235 123.3530 119.3023  1.00274873 20845
TIANTONG-1 2            
1 46916U 20082A   26159.65363682 -.00000340  00000+0  00000+0 0  9996
2 46916   0.8019 326.2020 0001383 110.9677 180.0960  1.00267814 20563
LUCAS (JDRS-1)          
1 47202U 20089A   26160.86897289 -.00000219  00000+0  00000+0 0  9997
2 47202   0.0245 279.9764 0002261 149.4626 232.4275  1.00272847 20340
SXM-7                   
1 47240U 20096A   26159.89724795 -.00000189  00000+0  00000+0 0  9995
2 47240   0.0403 145.8843 0003988 339.0032  10.2626  1.00272150  7368
CMS-01                  
1 47256U 20099A   26160.85731962 -.00000147  00000+0  00000+0 0  9991
2 47256   0.0784  98.4901 0003636 180.1894  11.1746  1.00272148 20125
TURKSAT 5A              
1 47306U 21001A   26160.88186799  .00000171  00000+0  00000+0 0  9992
2 47306   0.0220  62.3738 0000119 101.8784  82.4081  1.00271308 19897
TIANTONG-1 3            
1 47321U 21003A   26160.92830644 -.00000140  00000+0  00000+0 0  9998
2 47321   1.7623 338.8276 0003426 107.0053 228.2068  1.00272162 19881
TJS-6                   
1 47613U 21010A   26160.73368922  .00000061  00000+0  00000+0 0  9995
2 47613   0.2706 264.4803 0003705 213.1521 223.1419  1.00277123 19730
SBIRS GEO-5 (USA 315)   
1 48618U 21042A   26160.84191638 -.00000256  00000+0  00000+0 0  9993
2 48618   5.1136 329.0612 0001504 120.3494 205.7063  1.00271084 18691
FENGYUN 4B              
1 48808U 21047A   26160.93289979 -.00000311  00000+0  00000+0 0  9997
2 48808   0.1341  76.5533 0005099 286.6853 335.4366  1.00263407 18494
SXM-8                   
1 48838U 21049A   26159.89724795 -.00000189  00000+0  00000+0 0  9998
2 48838   0.0181  10.7842 0004969  21.8826 102.4864  1.00271519 18505
